     2.100          NAVIGATION                              RINEX VERSION / TYPE
fic2rin                                 09/04/2012 00:21:42 PGM / RUN BY / DATE
                                                            END OF HEADER
16 12  9  3 12  0  0.0 -.245210714638D-03 -.795807864051D-12  .000000000000D+00
     .780000000000D+02  .541250000000D+02  .430017911972D-08  .614317390019D+00
     .284798443317D-05  .653676141519D-02  .705569982529D-05  .515373503494D+04
     .129600000000D+06  .102445483208D-06  .124884746856D+01  .707805156708D-07
     .981514077692D+00  .250187500000D+03  .316544751074D-01 -.802783439153D-08
     .357514891930D-09  .100000000000D+01  .170400000000D+04  .000000000000D+00
     .240000000000D+01  .000000000000D+00 -.977888703346D-08  .780000000000D+02
     .122406000000D+06  .400000000000D+01
18 12  9  3 12  0  0.0  .213183462620D-03  .181898940355D-11  .000000000000D+00
     .840000000000D+02  .815937500000D+02  .530629245695D-08  .116075926228D+01
     .426918268204D-05  .136515647173D-01  .687129795551D-05  .515372775269D+04
     .129600000000D+06 -.244006514549D-06 -.193062776322D+01  .633299350739D-07
     .928760412039D+00  .230031250000D+03 -.214786337963D+01 -.872214902680D-08
     .277511559470D-09  .100000000000D+01  .170400000000D+04  .000000000000D+00
     .240000000000D+01  .000000000000D+00 -.107102096081D-07  .840000000000D+02
     .122406000000D+06  .400000000000D+01
20 12  9  3 12  0  0.0  .674622133374D-04  .682121026330D-12  .000000000000D+00
     .600000000000D+02  .100687500000D+03  .521878881207D-08  .159365696141D+01
     .517070293427D-05  .497880799230D-02  .741519033909D-05  .515364424515D+04
     .129600000000D+06 -.428408384323D-07 -.198430287416D+01 -.104308128357D-06
     .929346751068D+00  .217375000000D+03  .127940361257D+01 -.856249951962D-08
     .478234206089D-09  .100000000000D+01  .170400000000D+04  .000000000000D+00
     .240000000000D+01  .000000000000D+00 -.791624188423D-08  .600000000000D+02
     .122406000000D+06  .400000000000D+01
21 12  9  3 12  0  0.0 -.247318297625D-03 -.238742359215D-11  .000000000000D+00
     .830000000000D+02 -.240000000000D+02  .474591197200D-08  .231011239076D+01
    -.148080289364D-05  .193045763299D-01  .115279108286D-04  .515380994225D+04
     .129600000000D+06 -.558793544769D-07 -.298045047312D+01 -.363215804100D-06
     .931904552148D+00  .140218750000D+03 -.221999228928D+01 -.790997233924D-08
    -.204294223960D-09  .100000000000D+01  .170400000000D+04  .000000000000D+00
     .240000000000D+01  .000000000000D+00 -.111758708954D-07  .830000000000D+02
     .122406000000D+06  .400000000000D+01
22 12  9  3 12  0  0.0  .147335231304D-03  .568434188608D-12  .000000000000D+00
     .750000000000D+02  .881250000000D+02  .536808074497D-08  .391776069629D+00
     .457651913166D-05  .632209342439D-02  .635907053947D-05  .515367513275D+04
     .129600000000D+06 -.173225998878D-06 -.192745579987D+01  .763684511185D-07
     .926488978636D+00  .240031250000D+03 -.200763423046D+01 -.861393023334D-08
     .368229623956D-09  .100000000000D+01  .170400000000D+04  .000000000000D+00
     .340000000000D+01  .000000000000D+00 -.172294676304D-07  .750000000000D+02
     .122406000000D+06  .400000000000D+01
23 12  9  3 12  0  0.0  .168384052813D-03 -.397903932026D-11  .000000000000D+00
     .680000000000D+02 -.450625000000D+02  .492841957417D-08 -.152339252915D+01
    -.261887907982D-05  .823603756726D-02  .338628888130D-05  .515358611298D+04
     .129600000000D+06  .298023223877D-07 -.876300700756D+00 -.800937414169D-07
     .958789380352D+00  .310375000000D+03 -.294181541668D+01 -.847035282419D-08
    -.625026034843D-10  .100000000000D+01  .170400000000D+04  .000000000000D+00
     .240000000000D+01  .000000000000D+00 -.200234353542D-07  .680000000000D+02
     .122406000000D+06  .400000000000D+01
25 12  9  3 12  0  0.0  .416277907789D-04  .113686837722D-11  .000000000000D+00
     .330000000000D+02  .530625000000D+02  .450768776329D-08  .163674265791D+01
     .274553894997D-05  .183396204375D-02  .752694904804D-05  .515366462326D+04
     .129600000000D+06 -.104308128357D-06  .119540071328D+01  .502914190292D-07
     .969598454868D+00  .238593750000D+03  .785944264865D+00 -.808140805165D-08
     .408945605655D-09  .100000000000D+01  .170400000000D+04  .000000000000D+00
     .240000000000D+01  .000000000000D+00  .512227416039D-08  .330000000000D+02
     .122406000000D+06  .400000000000D+01
26 12  9  3 12  0  0.0 -.293336343020D-03  .128466126625D-10  .000000000000D+00
     .490000000000D+02 -.415937500000D+02  .431946563737D-08 -.165831694427D+01
    -.184215605259D-05  .207757124444D-01  .372342765331D-05  .515365892982D+04
     .129600000000D+06  .458210706711D-06 -.801429704775D+00  .175088644028D-06
     .982008715165D+00  .311750000000D+03  .120573099958D+01 -.795640284469D-08
    -.147863301957D-09  .100000000000D+01  .170400000000D+04  .000000000000D+00
     .240000000000D+01  .000000000000D+00 -.605359673500D-08  .490000000000D+02
     .122406000000D+06  .400000000000D+01
28 12  9  3 12  0  0.0  .181708484888D-03  .375166564481D-11  .000000000000D+00
     .420000000000D+02  .470312500000D+02  .442089843388D-08  .337881275208D+00
     .263005495071D-05  .180034346413D-01  .761449337006D-05  .515363031006D+04
     .129600000000D+06 -.162050127983D-06  .125545038150D+01  .484287738800D-07
     .979891820039D+00  .246812500000D+03 -.182139326628D+01 -.836570560807D-08
     .332871008271D-09  .100000000000D+01  .170400000000D+04  .000000000000D+00
     .240000000000D+01  .000000000000D+00 -.107102096081D-07  .420000000000D+02
     .122406000000D+06  .400000000000D+01
29 12  9  3 12  0  0.0  .351416878402D-03  .420641299570D-11  .000000000000D+00
     .550000000000D+02 -.446875000000D+02  .474805491840D-08  .250135318907D+01
    -.232830643654D-05  .189413339831D-02  .482983887196D-05  .515379049683D+04
     .129600000000D+06  .353902578354D-07  .229750101580D+01  .111758708954D-07
     .964104761530D+00  .287093750000D+03 -.106003439012D+01 -.823962892790D-08
    -.368229623956D-09  .100000000000D+01  .170400000000D+04  .000000000000D+00
     .240000000000D+01  .000000000000D+00 -.977888703346D-08  .550000000000D+02
     .122406000000D+06  .400000000000D+01
30 12  9  3 12  0  0.0 -.404337421060D-03 -.238742359215D-10  .000000000000D+00
     .960000000000D+02  .544687500000D+02  .475484091535D-08 -.430241503640D+00
     .298395752907D-05  .112044619163D-01  .832043588161D-05  .515370308685D+04
     .129600000000D+06 -.132247805595D-06  .110357650681D+01  .558793544769D-07
     .960837511013D+00  .219937500000D+03  .160239119092D+01 -.836963434315D-08
     .448590114150D-09  .100000000000D+01  .170400000000D+04  .000000000000D+00
     .480000000000D+02  .000000000000D+00 -.419095158577D-08  .960000000000D+02
     .122406000000D+06  .400000000000D+01
32 12  9  3 12  0  0.0 -.483839772642D-03 -.420641299570D-11  .000000000000D+00
     .470000000000D+02  .100031250000D+03  .469448125827D-08 -.252797144580D+01
     .534951686859D-05  .118242123863D-01  .615231692791D-05  .515359201431D+04
     .129600000000D+06 -.104308128357D-06 -.184989102165D+01  .139698386192D-06
     .950649554941D+00  .256843750000D+03 -.529579233958D+00 -.822141388346D-08
     .500735143343D-09  .100000000000D+01  .170400000000D+04  .000000000000D+00
     .240000000000D+01  .000000000000D+00 -.325962901115D-08  .470000000000D+02
     .122406000000D+06  .400000000000D+01
11 12  9  3 11 59 44.0 -.298869796097D-03 -.386535248253D-11  .000000000000D+00
     .000000000000D+00 -.612500000000D+02  .582917137981D-08 -.294800659718D+01
    -.316090881824D-05  .134046552703D-01  .101570039988D-04  .515368581581D+04
     .129584000000D+06  .158324837685D-06  .301941245371D+01 -.109896063805D-06
     .888752475742D+00  .141375000000D+03  .108422965660D+01 -.846178103857D-08
    -.398230873629D-09  .100000000000D+01  .170400000000D+04  .000000000000D+00
     .240000000000D+01  .000000000000D+00 -.121071934700D-07  .000000000000D+00
     .124266000000D+06  .400000000000D+01
14 12  9  3 11 59 44.0  .211735721678D-03  .909494701773D-12  .000000000000D+00
     .100000000000D+01 -.460937500000D+02  .454197490577D-08 -.563113343748D+00
    -.226311385632D-05  .677437160630D-02  .430457293987D-05  .515363061142D+04
     .129584000000D+06 -.502914190292D-07 -.822411901374D+00  .689178705215D-07
     .977266541863D+00  .308218750000D+03 -.205570172478D+01 -.828677374882D-08
    -.194293807403D-09  .100000000000D+01  .170400000000D+04  .000000000000D+00
     .240000000000D+01  .000000000000D+00 -.931322574615D-08  .100000000000D+01
     .124956000000D+06  .400000000000D+01
11 12  9  3 13 59 44.0 -.298897735775D-03 -.386535248253D-11  .000000000000D+00
     .800000000000D+01 -.490000000000D+02  .594810490530D-08 -.189798082693D+01
    -.256299972534D-05  .134068067418D-01  .924244523048D-05  .515368020248D+04
     .136784000000D+06  .251457095146D-06  .301935149538D+01 -.428408384323D-07
     .888749709364D+00  .159875000000D+03  .108438861581D+01 -.849571102332D-08
    -.396802242692D-09  .100000000000D+01  .170400000000D+04  .000000000000D+00
     .240000000000D+01  .000000000000D+00 -.121071934700D-07  .800000000000D+01
     .129606000000D+06  .400000000000D+01
14 12  9  3 13 59 44.0  .211742706597D-03  .909494701773D-12  .000000000000D+00
     .600000000000D+01 -.379062500000D+02  .442125559161D-08  .487131283430D+00
    -.215135514736D-05  .677544227801D-02  .419653952122D-05  .515363267899D+04
     .136784000000D+06 -.819563865662D-07 -.822471459695D+00  .279396772385D-07
     .977265108203D+00  .307281250000D+03 -.205574035459D+01 -.828177354054D-08
    -.220723479733D-09  .100000000000D+01  .170400000000D+04  .000000000000D+00
     .240000000000D+01  .000000000000D+00 -.931322574615D-08  .600000000000D+01
     .129606000000D+06  .400000000000D+01
